NAYIF-1 (EO-88)         
1 42017U 17008BX  20088.84939670  .00001265  00000-0  51615-4 0  9990
2 42017  97.3673 157.5685 0004768 237.6364 122.4413 15.26260271173251
MAX VALIER SAT          
1 42778U 17036P   20088.89923626  .00000731  00000-0  34520-4 0  9997
2 42778  97.3150 144.7259 0010753 310.7762  49.2541 15.22471488153476
RADFXSAT (FOX-1B)       
1 43017U 17073E   20088.73911980  .00000595  00000-0  52266-4 0  9993
2 43017  97.7255   4.0793 0256255 313.5944  44.4251 14.78859342127235
FOX-1D (AO-92)          
1 43137U 18004AC  20088.72632622  .00000833  00000-0  37394-4 0  9993
2 43137  97.4523 160.4143 0008677 349.9982  10.1081 15.23963042122743
ES'HAIL 2               
1 43700U 18090A   20088.88452365  .00000144  00000-0  00000-0 0  9990
2 43700   0.0197 192.0858 0002142 201.4429 137.4470  1.00269817  4900
FOX-1CLIFF (AO-95)      
1 43770U 18099N   20088.72080342 -.00000035  00000-0  20778-5 0  9990
2 43770  97.7119 161.4855 0016062 105.7864 254.5129 14.94935089 71854
ITASAT 1                
1 43786U 18099AE  20088.73622771  .00000381  00000-0  39757-4 0  9995
2 43786  97.7134 161.8623 0016734 100.2307 260.0802 14.95281151 71870
JY1SAT (JO-97)          
1 43803U 18099AX  20088.89383310  .00000452  00000-0  46009-4 0  9992
2 43803  97.7097 161.8563 0016816  99.8005 260.5115 14.95450558 71893
PSAT2 (NO-104)          
1 44354U 19036R   20088.57025098  .00012800  00000-0  19035-3 0  9995
2 44354  28.5299 191.2824 0370574 167.9650 193.0079 15.01841624 41639
BRICSAT2 (NO-103)       
1 44355U 19036S   20088.63728256  .00022778  00000-0  33065-3 0  9993
2 44355  28.5303 185.9846 0354883 176.5780 183.7341 15.05758536 41704
JAISAT-1                
1 44419U 19038F   20088.85485917  .00000910  00000-0  55542-4 0  9993
2 44419  97.5300  51.4475 0023056  51.2536 309.0751 15.12643113 40413
DUCHIFAT-3              
1 44854U 19089C   20088.69737465  .00000389  00000-0  37959-4 0  9994
2 44854  36.9662 215.5839 0006644 127.4351 232.6993 14.99005661 16175
HUSKYSAT-1              
1 45119U 19071J   20088.84649685  .00001851  00000-0  68190-4 0  9999
2 45119  51.6450  32.7411 0012895 121.7233 238.5007 15.33275035  8754
